SL-3 R/B                
1 13403U 82079B   26043.92367512  .00005642  00000+0  22717-3 0  9995
2 13403  81.1440 222.3125 0024151 249.5756 110.2884 15.24423943373924
SL-14 R/B               
1 13553U 82092B   26043.82699611  .00000584  00000+0  62834-4 0  9998
2 13553  82.5707 164.6471 0021002  27.7183 138.9169 14.86638955325237
SL-3 R/B                
1 13819U 83010B   26043.96978179  .00014848  00000+0  30736-3 0  9991
2 13819  81.1026  32.5329 0018272 129.1011 231.1862 15.45457928354129
SL-3 R/B                
1 14208U 83075B   26043.96506032  .00011919  00000+0  32111-3 0  9995
2 14208  97.6131  47.6224 0020549 322.9370  37.0453 15.37779281326356
COSMOS 1536             
1 14699U 84013A   26043.69810995  .00005704  00000+0  23716-3 0  9994
2 14699  82.5469 132.6821 0014478  16.3973 343.7729 15.23488587268812
SL-14 R/B               
1 14820U 84027B   26043.71074982  .00000441  00000+0  47592-4 0  9998
2 14820  82.5393 268.4458 0019319  58.7192 301.5913 14.85951385243920
SL-8 R/B                
1 15483U 85006B   26043.88973833  .00000214  00000+0  79628-4 0  9996
2 15483  74.0465 306.7830 0019344 229.5677 203.0236 14.37770940150469
SL-12 R/B(2)            
1 15772U 85042D   26043.73177368  .00000097  00000+0  64971-4 0  9994
2 15772  71.1086 140.4578 0034686 168.2374 306.0985 14.21975532110848
SL-14 R/B               
1 15945U 85069B   26043.97236010  .00000564  00000+0  61019-4 0  9990
2 15945  82.5242  48.1794 0017182 274.9331  84.9924 14.86403474169160
SL-16 R/B               
1 16182U 85097B   26043.86646148 -.00000221  00000+0 -86783-4 0  9997
2 16182  71.0022 192.8094 0009710 288.7774 224.1794 14.16595413 83712
SL-14 R/B               
1 16496U 86006B   26043.75401585  .00000705  00000+0  72228-4 0  9992
2 16496  82.5259 283.2088 0076564 356.5755   3.4926 14.86781490145501
COSMOS 1743             
1 16719U 86034A   26043.58683043  .00034644  00000+0  48326-3 0  9993
2 16719  82.5329 100.1387 0004796  41.0448 319.1167 15.56719088176341
