CCSDS_OMM_VERS = 2.0
CREATION_DATE  = 
ORIGINATOR     = 

OBJECT_NAME    = SL-3 R/B
OBJECT_ID      = 1982-079B
CENTER_NAME    = EARTH
REF_FRAME      = TEME
TIME_SYSTEM    = UTC
MEAN_ELEMENT_THEORY = SGP/SGP4

EPOCH          = 2026-02-12T22:10:05.530368
MEAN_MOTION    = 15.24423943
ECCENTRICITY   = .0024151
INCLINATION    = 81.1440
RA_OF_ASC_NODE = 222.3125
ARG_OF_PERICENTER = 249.5756
MEAN_ANOMALY   = 110.2884

EPHEMERIS_TYPE = 0
CLASSIFICATION_TYPE = U
NORAD_CAT_ID   = 13403
ELEMENT_SET_NO = 999
REV_AT_EPOCH   = 37392
BSTAR          = .22717202E-3
MEAN_MOTION_DOT = .5642E-4
MEAN_MOTION_DDOT = 0

CCSDS_OMM_VERS = 2.0
CREATION_DATE  = 
ORIGINATOR     = 

OBJECT_NAME    = SL-14 R/B
OBJECT_ID      = 1982-092B
CENTER_NAME    = EARTH
REF_FRAME      = TEME
TIME_SYSTEM    = UTC
MEAN_ELEMENT_THEORY = SGP/SGP4

EPOCH          = 2026-02-12T19:50:52.463904
MEAN_MOTION    = 14.86638955
ECCENTRICITY   = .00210021
INCLINATION    = 82.5707
RA_OF_ASC_NODE = 164.6471
ARG_OF_PERICENTER = 27.7183
MEAN_ANOMALY   = 138.9169

EPHEMERIS_TYPE = 0
CLASSIFICATION_TYPE = U
NORAD_CAT_ID   = 13553
ELEMENT_SET_NO = 999
REV_AT_EPOCH   = 32523
BSTAR          = .62833909E-4
MEAN_MOTION_DOT = .584E-5
MEAN_MOTION_DDOT = 0

CCSDS_OMM_VERS = 2.0
CREATION_DATE  = 
ORIGINATOR     = 

OBJECT_NAME    = SL-3 R/B
OBJECT_ID      = 1983-010B
CENTER_NAME    = EARTH
REF_FRAME      = TEME
TIME_SYSTEM    = UTC
MEAN_ELEMENT_THEORY = SGP/SGP4

EPOCH          = 2026-02-12T23:16:29.146656
MEAN_MOTION    = 15.45457928
ECCENTRICITY   = .00182729
INCLINATION    = 81.1026
RA_OF_ASC_NODE = 32.5329
ARG_OF_PERICENTER = 129.1011
MEAN_ANOMALY   = 231.1862

EPHEMERIS_TYPE = 0
CLASSIFICATION_TYPE = U
NORAD_CAT_ID   = 13819
ELEMENT_SET_NO = 999
REV_AT_EPOCH   = 35412
BSTAR          = .30735822E-3
MEAN_MOTION_DOT = .14848E-3
MEAN_MOTION_DDOT = 0

CCSDS_OMM_VERS = 2.0
CREATION_DATE  = 
ORIGINATOR     = 

OBJECT_NAME    = SL-3 R/B
OBJECT_ID      = 1983-075B
CENTER_NAME    = EARTH
REF_FRAME      = TEME
TIME_SYSTEM    = UTC
MEAN_ELEMENT_THEORY = SGP/SGP4

EPOCH          = 2026-02-12T23:09:41.211648
MEAN_MOTION    = 15.37779281
ECCENTRICITY   = .00205491
INCLINATION    = 97.6131
RA_OF_ASC_NODE = 47.6224
ARG_OF_PERICENTER = 322.9370
MEAN_ANOMALY   = 37.0453

EPHEMERIS_TYPE = 0
CLASSIFICATION_TYPE = U
NORAD_CAT_ID   = 14208
ELEMENT_SET_NO = 999
REV_AT_EPOCH   = 32635
BSTAR          = .32110811E-3
MEAN_MOTION_DOT = .11919E-3
MEAN_MOTION_DDOT = 0

CCSDS_OMM_VERS = 2.0
CREATION_DATE  = 
ORIGINATOR     = 

OBJECT_NAME    = COSMOS 1536
OBJECT_ID      = 1984-013A
CENTER_NAME    = EARTH
REF_FRAME      = TEME
TIME_SYSTEM    = UTC
MEAN_ELEMENT_THEORY = SGP/SGP4

EPOCH          = 2026-02-12T16:45:16.699680
MEAN_MOTION    = 15.23488587
ECCENTRICITY   = .00144788
INCLINATION    = 82.5469
RA_OF_ASC_NODE = 132.6821
ARG_OF_PERICENTER = 16.3973
MEAN_ANOMALY   = 343.7729

EPHEMERIS_TYPE = 0
CLASSIFICATION_TYPE = U
NORAD_CAT_ID   = 14699
ELEMENT_SET_NO = 999
REV_AT_EPOCH   = 26881
BSTAR          = .23716274E-3
MEAN_MOTION_DOT = .5704E-4
MEAN_MOTION_DDOT = 0

CCSDS_OMM_VERS = 2.0
CREATION_DATE  = 
ORIGINATOR     = 

OBJECT_NAME    = SL-14 R/B
OBJECT_ID      = 1984-027B
CENTER_NAME    = EARTH
REF_FRAME      = TEME
TIME_SYSTEM    = UTC
MEAN_ELEMENT_THEORY = SGP/SGP4

EPOCH          = 2026-02-12T17:03:28.784448
MEAN_MOTION    = 14.85951385
ECCENTRICITY   = .00193199
INCLINATION    = 82.5393
RA_OF_ASC_NODE = 268.4458
ARG_OF_PERICENTER = 58.7192
MEAN_ANOMALY   = 301.5913

EPHEMERIS_TYPE = 0
CLASSIFICATION_TYPE = U
NORAD_CAT_ID   = 14820
ELEMENT_SET_NO = 999
REV_AT_EPOCH   = 24392
BSTAR          = .47591678E-4
MEAN_MOTION_DOT = .441E-5
MEAN_MOTION_DDOT = 0

CCSDS_OMM_VERS = 2.0
CREATION_DATE  = 
ORIGINATOR     = 

OBJECT_NAME    = SL-8 R/B
OBJECT_ID      = 1985-006B
CENTER_NAME    = EARTH
REF_FRAME      = TEME
TIME_SYSTEM    = UTC
MEAN_ELEMENT_THEORY = SGP/SGP4

EPOCH          = 2026-02-12T21:21:13.391712
MEAN_MOTION    = 14.37770940
ECCENTRICITY   = .0019344
INCLINATION    = 74.0465
RA_OF_ASC_NODE = 306.7830
ARG_OF_PERICENTER = 229.5677
MEAN_ANOMALY   = 203.0236

EPHEMERIS_TYPE = 0
CLASSIFICATION_TYPE = U
NORAD_CAT_ID   = 15483
ELEMENT_SET_NO = 999
REV_AT_EPOCH   = 15046
BSTAR          = .79627964E-4
MEAN_MOTION_DOT = .214E-5
MEAN_MOTION_DDOT = 0

CCSDS_OMM_VERS = 2.0
CREATION_DATE  = 
ORIGINATOR     = 

OBJECT_NAME    = SL-12 R/B(2)
OBJECT_ID      = 1985-042D
CENTER_NAME    = EARTH
REF_FRAME      = TEME
TIME_SYSTEM    = UTC
MEAN_ELEMENT_THEORY = SGP/SGP4

EPOCH          = 2026-02-12T17:33:45.245952
MEAN_MOTION    = 14.21975532
ECCENTRICITY   = .00346864
INCLINATION    = 71.1086
RA_OF_ASC_NODE = 140.4578
ARG_OF_PERICENTER = 168.2374
MEAN_ANOMALY   = 306.0985

EPHEMERIS_TYPE = 0
CLASSIFICATION_TYPE = U
NORAD_CAT_ID   = 15772
ELEMENT_SET_NO = 999
REV_AT_EPOCH   = 11084
BSTAR          = .64971258E-4
MEAN_MOTION_DOT = .97E-6
MEAN_MOTION_DDOT = 0

CCSDS_OMM_VERS = 2.0
CREATION_DATE  = 
ORIGINATOR     = 

OBJECT_NAME    = SL-14 R/B
OBJECT_ID      = 1985-069B
CENTER_NAME    = EARTH
REF_FRAME      = TEME
TIME_SYSTEM    = UTC
MEAN_ELEMENT_THEORY = SGP/SGP4

EPOCH          = 2026-02-12T23:20:11.912640
MEAN_MOTION    = 14.86403474
ECCENTRICITY   = .00171825
INCLINATION    = 82.5242
RA_OF_ASC_NODE = 48.1794
ARG_OF_PERICENTER = 274.9331
MEAN_ANOMALY   = 84.9924

EPHEMERIS_TYPE = 0
CLASSIFICATION_TYPE = U
NORAD_CAT_ID   = 15945
ELEMENT_SET_NO = 999
REV_AT_EPOCH   = 16916
BSTAR          = .61019265E-4
MEAN_MOTION_DOT = .564E-5
MEAN_MOTION_DDOT = 0

CCSDS_OMM_VERS = 2.0
CREATION_DATE  = 
ORIGINATOR     = 

OBJECT_NAME    = SL-16 R/B
OBJECT_ID      = 1985-097B
CENTER_NAME    = EARTH
REF_FRAME      = TEME
TIME_SYSTEM    = UTC
MEAN_ELEMENT_THEORY = SGP/SGP4

EPOCH          = 2026-02-12T20:47:42.271872
MEAN_MOTION    = 14.16595413
ECCENTRICITY   = .00097107
INCLINATION    = 71.0022
RA_OF_ASC_NODE = 192.8094
ARG_OF_PERICENTER = 288.7774
MEAN_ANOMALY   = 224.1794

EPHEMERIS_TYPE = 0
CLASSIFICATION_TYPE = U
NORAD_CAT_ID   = 16182
ELEMENT_SET_NO = 999
REV_AT_EPOCH   = 8371
BSTAR          = -.86783457E-4
MEAN_MOTION_DOT = -.221E-5
MEAN_MOTION_DDOT = 0

CCSDS_OMM_VERS = 2.0
CREATION_DATE  = 
ORIGINATOR     = 

OBJECT_NAME    = SL-14 R/B
OBJECT_ID      = 1986-006B
CENTER_NAME    = EARTH
REF_FRAME      = TEME
TIME_SYSTEM    = UTC
MEAN_ELEMENT_THEORY = SGP/SGP4

EPOCH          = 2026-02-12T18:05:46.969440
MEAN_MOTION    = 14.86781490
ECCENTRICITY   = .00765642
INCLINATION    = 82.5259
RA_OF_ASC_NODE = 283.2088
ARG_OF_PERICENTER = 356.5755
MEAN_ANOMALY   = 3.4926

EPHEMERIS_TYPE = 0
CLASSIFICATION_TYPE = U
NORAD_CAT_ID   = 16496
ELEMENT_SET_NO = 999
REV_AT_EPOCH   = 14550
BSTAR          = .7222774E-4
MEAN_MOTION_DOT = .705E-5
MEAN_MOTION_DDOT = 0

CCSDS_OMM_VERS = 2.0
CREATION_DATE  = 
ORIGINATOR     = 

OBJECT_NAME    = COSMOS 1743
OBJECT_ID      = 1986-034A
CENTER_NAME    = EARTH
REF_FRAME      = TEME
TIME_SYSTEM    = UTC
MEAN_ELEMENT_THEORY = SGP/SGP4

EPOCH          = 2026-02-12T14:05:02.149152
MEAN_MOTION    = 15.56719088
ECCENTRICITY   = .0004796
INCLINATION    = 82.5329
RA_OF_ASC_NODE = 100.1387
ARG_OF_PERICENTER = 41.0448
MEAN_ANOMALY   = 319.1167

EPHEMERIS_TYPE = 0
CLASSIFICATION_TYPE = U
NORAD_CAT_ID   = 16719
ELEMENT_SET_NO = 999
REV_AT_EPOCH   = 17634
BSTAR          = .48326E-3
MEAN_MOTION_DOT = .34644E-3
MEAN_MOTION_DDOT = 0

